HAWK-11C                
1 62381U 24247E   26068.51221537  .00009223  00000+0  33290-3 0  9992
2 62381  45.0045 114.8762 0005900 329.7040  30.3502 15.28848020 67743
STARLINK-35118          
1 66858U 25281L   26067.18085412  .00039094  00000+0  14204-2 0  9998
2 66858  43.0039 352.0942 0001601 279.6952  80.3719 15.27631687 15951
